{
  "type": "FeatureCollection",
  "features": [
    {
      "type": "Feature",
      "properties": {
        "norad_id": 66594,
        "name": "STARLINK-36032",
        "group": "last-30-days",
        "lat": 4.19847751993631,
        "lon": -149.17612312026426,
        "alt_km": 410.77078065765363,
        "timestamp": "2025-12-10T09:57:43.489685+00:00",
        "meta_object_name": "STARLINK-36032",
        "meta_object_id": "2025-270G",
        "meta_epoch": "2025-12-10T04:00:01.998720",
        "meta_mean_motion": 15.52904754,
        "meta_eccentricity": 0.0001708,
        "meta_inclination": 42.9995,
        "meta_ra_of_asc_node": 207.7627,
        "meta_arg_of_pericenter": 268.797,
        "meta_mean_anomaly": 147.585,
        "meta_ephemeris_type": 0,
        "meta_classification_type": "U",
        "meta_norad_cat_id": 66594,
        "meta_element_set_no": 999,
        "meta_rev_at_epoch": 372,
        "meta_bstar": -0.033831,
        "meta_mean_motion_dot": -0.01936345,
        "meta_mean_motion_ddot": 0,
        "tle_line1": "1 66594U 25270G   25344.16668980 -.01936345  00000+0 -33831-1 0  9999",
        "tle_line2": "2 66594  42.9995 207.7627 0001708 268.7970 147.5850 15.52904754  3720"
      },
      "geometry": {
        "type": "Point",
        "coordinates": [
          -149.17612312026426,
          4.19847751993631
        ]
      }
    },
    {
      "type": "Feature",
      "properties": {
        "norad_id": 66595,
        "name": "STARLINK-35711",
        "group": "last-30-days",
        "lat": 5.499830617789003,
        "lon": -147.76886904077753,
        "alt_km": 410.72141038495647,
        "timestamp": "2025-12-10T09:57:43.489695+00:00",
        "meta_object_name": "STARLINK-35711",
        "meta_object_id": "2025-270H",
        "meta_epoch": "2025-12-10T04:00:01.998720",
        "meta_mean_motion": 15.52898349,
        "meta_eccentricity": 0.0001578,
        "meta_inclination": 42.9996,
        "meta_ra_of_asc_node": 207.7574,
        "meta_arg_of_pericenter": 263.3539,
        "meta_mean_anomaly": 154.9466,
        "meta_ephemeris_type": 0,
        "meta_classification_type": "U",
        "meta_norad_cat_id": 66595,
        "meta_element_set_no": 999,
        "meta_rev_at_epoch": 409,
        "meta_bstar": -0.033432,
        "meta_mean_motion_dot": -0.018817,
        "meta_mean_motion_ddot": 0,
        "tle_line1": "1 66595U 25270H   25344.16668980 -.01881700  00000+0 -33432-1 0  9991",
        "tle_line2": "2 66595  42.9996 207.7574 0001578 263.3539 154.9466 15.52898349  4098"
      },
      "geometry": {
        "type": "Point",
        "coordinates": [
          -147.76886904077753,
          5.499830617789003
        ]
      }
    },
    {
      "type": "Feature",
      "properties": {
        "norad_id": 66596,
        "name": "STARLINK-35811",
        "group": "last-30-days",
        "lat": 6.799396251292921,
        "lon": -146.3532603328223,
        "alt_km": 410.45914187774633,
        "timestamp": "2025-12-10T09:57:43.489707+00:00",
        "meta_object_name": "STARLINK-35811",
        "meta_object_id": "2025-270J",
        "meta_epoch": "2025-12-10T04:00:01.998720",
        "meta_mean_motion": 15.52904428,
        "meta_eccentricity": 0.000175,
        "meta_inclination": 42.9998,
        "meta_ra_of_asc_node": 207.7526,
        "meta_arg_of_pericenter": 270.5844,
        "meta_mean_anomaly": 149.6334,
        "meta_ephemeris_type": 0,
        "meta_classification_type": "U",
        "meta_norad_cat_id": 66596,
        "meta_element_set_no": 999,
        "meta_rev_at_epoch": 409,
        "meta_bstar": -0.033908,
        "meta_mean_motion_dot": -0.01940322,
        "meta_mean_motion_ddot": 0,
        "tle_line1": "1 66596U 25270J   25344.16668980 -.01940322  00000+0 -33908-1 0  9996",
        "tle_line2": "2 66596  42.9998 207.7526 0001750 270.5844 149.6334 15.52904428  4090"
      },
      "geometry": {
        "type": "Point",
        "coordinates": [
          -146.3532603328223,
          6.799396251292921
        ]
      }
    },
    {
      "type": "Feature",
      "properties": {
        "norad_id": 66597,
        "name": "STARLINK-35820",
        "group": "last-30-days",
        "lat": 8.09273416054885,
        "lon": -144.93203636662386,
        "alt_km": 410.4075514327351,
        "timestamp": "2025-12-10T09:57:43.489717+00:00",
        "meta_object_name": "STARLINK-35820",
        "meta_object_id": "2025-270K",
        "meta_epoch": "2025-12-10T04:00:01.998720",
        "meta_mean_motion": 15.52910693,
        "meta_eccentricity": 0.0001708,
        "meta_inclination": 42.9995,
        "meta_ra_of_asc_node": 207.7479,
        "meta_arg_of_pericenter": 266.4669,
        "meta_mean_anomaly": 155.6642,
        "meta_ephemeris_type": 0,
        "meta_classification_type": "U",
        "meta_norad_cat_id": 66597,
        "meta_element_set_no": 999,
        "meta_rev_at_epoch": 409,
        "meta_bstar": -0.034084,
        "meta_mean_motion_dot": -0.01949738,
        "meta_mean_motion_ddot": 0,
        "tle_line1": "1 66597U 25270K   25344.16668980 -.01949738  00000+0 -34084-1 0  9993",
        "tle_line2": "2 66597  42.9995 207.7479 0001708 266.4669 155.6642 15.52910693  4097"
      },
      "geometry": {
        "type": "Point",
        "coordinates": [
          -144.93203636662386,
          8.09273416054885
        ]
      }
    },
    {
      "type": "Feature",
      "properties": {
        "norad_id": 66598,
        "name": "STARLINK-35981",
        "group": "last-30-days",
        "lat": 9.383550063932866,
        "lon": -143.49900596608958,
        "alt_km": 410.1580506326454,
        "timestamp": "2025-12-10T09:57:43.489727+00:00",
        "meta_object_name": "STARLINK-35981",
        "meta_object_id": "2025-270L",
        "meta_epoch": "2025-12-10T04:00:01.998720",
        "meta_mean_motion": 15.52904307,
        "meta_eccentricity": 0.0001621,
        "meta_inclination": 42.9999,
        "meta_ra_of_asc_node": 207.7433,
        "meta_arg_of_pericenter": 268.1419,
        "meta_mean_anomaly": 155.9048,
        "meta_ephemeris_type": 0,
        "meta_classification_type": "U",
        "meta_norad_cat_id": 66598,
        "meta_element_set_no": 999,
        "meta_rev_at_epoch": 382,
        "meta_bstar": -0.033365,
        "meta_mean_motion_dot": -0.01878776,
        "meta_mean_motion_ddot": 0,
        "tle_line1": "1 66598U 25270L   25344.16668980 -.01878776  00000+0 -33365-1 0  9998",
        "tle_line2": "2 66598  42.9999 207.7433 0001621 268.1419 155.9048 15.52904307  3826"
      },
      "geometry": {
        "type": "Point",
        "coordinates": [
          -143.49900596608958,
          9.383550063932866
        ]
      }
    },
    {
      "type": "Feature",
      "properties": {
        "norad_id": 66599,
        "name": "STARLINK-35930",
        "group": "last-30-days",
        "lat": 10.666055803664351,
        "lon": -142.05773940264453,
        "alt_km": 409.99446792435447,
        "timestamp": "2025-12-10T09:57:43.489737+00:00",
        "meta_object_name": "STARLINK-35930",
        "meta_object_id": "2025-270M",
        "meta_epoch": "2025-12-10T04:00:01.998720",
        "meta_mean_motion": 15.5290639,
        "meta_eccentricity": 0.0001616,
        "meta_inclination": 42.9997,
        "meta_ra_of_asc_node": 207.7388,
        "meta_arg_of_pericenter": 269.7425,
        "meta_mean_anomaly": 156.2219,
        "meta_ephemeris_type": 0,
        "meta_classification_type": "U",
        "meta_norad_cat_id": 66599,
        "meta_element_set_no": 999,
        "meta_rev_at_epoch": 398,
        "meta_bstar": -0.033674,
        "meta_mean_motion_dot": -0.01928326,
        "meta_mean_motion_ddot": 0,
        "tle_line1": "1 66599U 25270M   25344.16668980 -.01928326  00000+0 -33674-1 0  9999",
        "tle_line2": "2 66599  42.9997 207.7388 0001616 269.7425 156.2219 15.52906390  3987"
      },
      "geometry": {
        "type": "Point",
        "coordinates": [
          -142.05773940264453,
          10.666055803664351
        ]
      }
    },
    {
      "type": "Feature",
      "properties": {
        "norad_id": 66600,
        "name": "STARLINK-35980",
        "group": "last-30-days",
        "lat": 11.943348193616185,
        "lon": -140.6028800536119,
        "alt_km": 409.8831827317954,
        "timestamp": "2025-12-10T09:57:43.489747+00:00",
        "meta_object_name": "STARLINK-35980",
        "meta_object_id": "2025-270N",
        "meta_epoch": "2025-12-10T04:00:01.998720",
        "meta_mean_motion": 15.52903776,
        "meta_eccentricity": 0.0001742,
        "meta_inclination": 42.9996,
        "meta_ra_of_asc_node": 207.734,
        "meta_arg_of_pericenter": 270.0663,
        "meta_mean_anomaly": 157.819,
        "meta_ephemeris_type": 0,
        "meta_classification_type": "U",
        "meta_norad_cat_id": 66600,
        "meta_element_set_no": 999,
        "meta_rev_at_epoch": 388,
        "meta_bstar": -0.033858,
        "meta_mean_motion_dot": -0.01937687,
        "meta_mean_motion_ddot": 0,
        "tle_line1": "1 66600U 25270N   25344.16668980 -.01937687  00000+0 -33858-1 0  9996",
        "tle_line2": "2 66600  42.9996 207.7340 0001742 270.0663 157.8190 15.52903776  3885"
      },
      "geometry": {
        "type": "Point",
        "coordinates": [
          -140.6028800536119,
          11.943348193616185
        ]
      }
    }
  ]
}